NOAA 15                 
1 25338U 98030A   23031.57081746  .00000172  00000+0  89710-4 0  9996
2 25338  98.6225  62.8603 0010203 358.4997   1.6151 14.26233236285787
NOAA 18                 
1 28654U 05018A   23031.53397171  .00000178  00000+0  11954-3 0  9992
2 28654  98.9250 106.5208 0014821  49.8348 310.4119 14.12851429912181
NOAA 19                 
1 33591U 09005A   23031.56153504  .00000173  00000+0  11841-3 0  9991
2 33591  99.1211  75.1801 0012975 266.8460  93.1227 14.12677890720394
METOP-B                 
1 38771U 12049A   23031.63273671  .00000107  00000+0  68850-4 0  9994
2 38771  98.6997  93.1662 0001668  94.7055  59.8416 14.21505953538154
SARAL                   
1 39086U 13009A   23031.58500290  .00000058  00000+0  37626-4 0  9997
2 39086  98.5436 218.8663 0001596   4.9059 355.2140 14.32125146519133
METOP-C                 
1 43689U 18087A   23031.56886774  .00000106  00000+0  68293-4 0  9992
2 43689  98.7042  93.1706 0004094  99.0829 261.0811 14.21480612219710
ANGELS                  
1 44876U 19092D   23031.45973449  .00004462  00000+0  21328-3 0  9998
2 44876  97.4741 217.2512 0010431 287.5452  72.4643 15.19479649172848
GAZELLE                 
1 54023U 22127A   23031.51090478 -.00000043  00000+0  00000+0 0  9997
2 54023  98.3172  32.8552 0012851 312.2585  47.7528 14.41708033 16689
EOS-6 (OCEANSAT-3)      
1 54361U 22158A   23031.44184185  .00000597  00000+0  17617-3 0  9996
2 54361  98.3510 130.2946 0001618  88.4763 271.6602 14.46997630  9567
